ONEWEB-0228             
1 48780U 21045P   23059.24949199 -.00000122  00000+0 -35716-3 0  9996
2 48780  87.9088 139.1121 0001616 101.7308 258.4004 13.15547023 87033
ONEWEB-0228             
1 48780U 21045P   23059.78189460 -.00000166  00000+0 -47567-3 0  9997
2 48780  87.9081 139.0062 0001615 102.0749 258.0563 13.15546253 85972
ONEWEB-0228             
1 48780U 21045P   23060.23823815 -.00000038  00000+0 -13605-3 0  9992
2 48780  87.9082 138.9157 0001616 101.7450 258.3862 13.15547234 86035
ONEWEB-0228             
1 48780U 21045P   23061.15092756 -.00000032  00000+0 -11862-3 0  9993
2 48780  87.9081 138.7347 0001631 101.6890 258.4423 13.15547197 87287
ONEWEB-0228             
1 48780U 21045P   23061.60727313 -.00000094  00000+0 -28345-3 0  9999
2 48780  87.9081 138.6440 0001608 101.0901 259.0410 13.15546521 86216
ONEWEB-0228             
1 48780U 21045P   23062.29178882  .00000065  00000+0  13884-3 0  9994
2 48780  87.9081 138.5082 0001614 101.2119 258.9193 13.15548033 86303
ONEWEB-0228             
1 48780U 21045P   23062.29178882  .00000065  00000+0  13884-3 0  9994
2 48780  87.9081 138.5082 0001614 101.2119 258.9193 13.15548033 87438
ONEWEB-0228             
1 48780U 21045P   23062.90024932  .00000038  00000+0  66942-4 0  9992
2 48780  87.9084 138.3879 0001640 102.1964 257.9350 13.15547142 86387
